[Satellite]
VERSION=1.1
NAME=COSMOS 2456 (730)
NICKNAME=COSMOS 2456 (730)
TLE1=1 36111U 09070A   19316.60750671  .00000103  00000-0  00000+0 0  9993
TLE2=2 36111  64.2046 153.5485 0002755 348.5428  16.0981  2.13102982 77142
STATUS=0
